{
  "links" : {
    "next" : "https://api.nasa.gov/neo/rest/v1/neo/browse?page=1&size=20&api_key=DEMO_KEY",
    "self" : "https://api.nasa.gov/neo/rest/v1/neo/browse?page=0&size=20&api_key=DEMO_KEY"
  },
  "page" : {
    "size" : 20,
    "total_elements" : 17510,
    "total_pages" : 875,
    "number" : 0
  },
  "near_earth_objects" : [ {
    "links" : {
      "self" : "https://api.nasa.gov/neo/rest/v1/neo/2385580?api_key=DEMO_KEY"
    },
    "neo_reference_id" : "2385580",
    "name" : "385580 (2004 XO14)",
    "nasa_jpl_url" : "http://ssd.jpl.nasa.gov/sbdb.cgi?sstr=2385580",
    "absolute_magnitude_h" : 16.1,
    "estimated_diameter" : {
      "kilometers" : {
        "estimated_diameter_min" : 1.6016033798,
        "estimated_diameter_max" : 3.5812940302
      },
      "meters" : {
        "estimated_diameter_min" : 1601.6033797856,
        "estimated_diameter_max" : 3581.2940301941
      },
      "miles" : {
        "estimated_diameter_min" : 0.9951898937,
        "estimated_diameter_max" : 2.2253122528
      },
      "feet" : {
        "estimated_diameter_min" : 5254.6044325359,
        "estimated_diameter_max" : 11749.652706022
      }
    },
    "is_potentially_hazardous_asteroid" : false,
    "close_approach_data" : [ {
      "close_approach_date" : "1969-12-22",
      "epoch_date_close_approach" : -835200000,
      "relative_velocity" : {
        "kilometers_per_second" : "14.3383307562",
        "kilometers_per_hour" : "51617.9907221962",
        "miles_per_hour" : "32073.4120684668"
      },
      "miss_distance" : {
        "astronomical" : "0.4748663889",
        "lunar" : "184.7230224609",
        "kilometers" : "71039000",
        "miles" : "44141588"
      },
      "orbiting_body" : "Earth"
    }, {
      "close_approach_date" : "2017-12-24",
      "epoch_date_close_approach" : 1514102400000,
      "relative_velocity" : {
        "kilometers_per_second" : "12.9033740769",
        "kilometers_per_hour" : "46452.1466768609",
        "miles_per_hour" : "28863.5574726306"
      },
      "miss_distance" : {
        "astronomical" : "0.4727682342",
        "lunar" : "183.9068450928",
        "kilometers" : "70725120",
        "miles" : "43946556"
      },
      "orbiting_body" : "Earth"
    }, {
      "close_approach_date" : "2126-12-23",
      "epoch_date_close_approach" : 4953686400000,
      "relative_velocity" : {
        "kilometers_per_second" : "15.151522599",
        "kilometers_per_hour" : "54545.4813563348",
        "miles_per_hour" : "33892.4409016626"
      },
      "miss_distance" : {
        "astronomical" : "0.4653049598",
        "lunar" : "181.0036315918",
        "kilometers" : "69608632",
        "miles" : "43252800"
      },
      "orbiting_body" : "Earth"
    }, {
      "close_approach_date" : "2174-12-25",
      "epoch_date_close_approach" : 6468624000000,
      "relative_velocity" : {
        "kilometers_per_second" : "13.2321120957",
        "kilometers_per_hour" : "47635.6035444707",
        "miles_per_hour" : "29598.9115468407"
      },
      "miss_distance" : {
        "astronomical" : "0.464747294",
        "lunar" : "180.7866973877",
        "kilometers" : "69525208",
        "miles" : "43200960"
      },
      "orbiting_body" : "Earth"
    } ],
    "orbital_data" : {
      "orbit_id" : "109",
      "orbit_determination_date" : "2017-09-25 06:52:15",
      "orbit_uncertainty" : "0",
      "minimum_orbit_intersection" : ".465698",
      "jupiter_tisserand_invariant" : "3.021",
      "epoch_osculation" : "2458000.5",
      "eccentricity" : ".5550438432071698",
      "semi_major_axis" : "2.669374003941744",
      "inclination" : "25.93202457272238",
      "ascending_node_longitude" : "129.5155914488446",
      "orbital_period" : "1592.988229902615",
      "perihelion_distance" : "1.187754397836607",
      "perihelion_argument" : "276.2928896082279",
      "aphelion_distance" : "4.15099361004688",
      "perihelion_time" : "2458057.680399682029",
      "mean_anomaly" : "347.077780300493",
      "mean_motion" : ".2259903703255912",
      "equinox" : "J2000"
    }
  }, {
    "links" : {
      "self" : "https://api.nasa.gov/neo/rest/v1/neo/2397237?api_key=DEMO_KEY"
    },
    "neo_reference_id" : "2397237",
    "name" : "397237 (2006 KZ112)",
    "nasa_jpl_url" : "http://ssd.jpl.nasa.gov/sbdb.cgi?sstr=2397237",
    "absolute_magnitude_h" : 16.7,
    "estimated_diameter" : {
      "kilometers" : {
        "estimated_diameter_min" : 1.214940408,
        "estimated_diameter_max" : 2.7166893409
      },
      "meters" : {
        "estimated_diameter_min" : 1214.9404079963,
        "estimated_diameter_max" : 2716.6893408911
      },
      "miles" : {
        "estimated_diameter_min" : 0.7549287363,
        "estimated_diameter_max" : 1.6880719724
      },
      "feet" : {
        "estimated_diameter_min" : 3986.0250881707,
        "estimated_diameter_max" : 8913.0230571693
      }
    },
    "is_potentially_hazardous_asteroid" : false,
    "close_approach_data" : [ {
      "close_approach_date" : "1927-07-10",
      "epoch_date_close_approach" : -1340553600000,
      "relative_velocity" : {
        "kilometers_per_second" : "16.3030669092",
        "kilometers_per_hour" : "58691.0408730214",
        "miles_per_hour" : "36468.3303691282"
      },
      "miss_distance" : {
        "astronomical" : "1.9985523017",
        "lunar" : "777.4368286133",
        "kilometers" : "298979168",
        "miles" : "185777040"
      },
      "orbiting_body" : "Juptr"
    }, {
      "close_approach_date" : "1939-05-18",
      "epoch_date_close_approach" : -966441600000,
      "relative_velocity" : {
        "kilometers_per_second" : "16.1907295612",
        "kilometers_per_hour" : "58286.6264203945",
        "miles_per_hour" : "36217.0429554946"
      },
      "miss_distance" : {
        "astronomical" : "1.9715103402",
        "lunar" : "766.9174804688",
        "kilometers" : "294933760",
        "miles" : "183263328"
      },
      "orbiting_body" : "Juptr"
    }, {
      "close_approach_date" : "2042-04-25",
      "epoch_date_close_approach" : 2282022000000,
      "relative_velocity" : {
        "kilometers_per_second" : "51.9700930077",
        "kilometers_per_hour" : "187092.3348276854",
        "miles_per_hour" : "116251.9010489027"
      },
      "miss_distance" : {
        "astronomical" : "0.0906054593",
        "lunar" : "35.2455253601",
        "kilometers" : "13554384",
        "miles" : "8422304"
      },
      "orbiting_body" : "Merc"
    } ],
    "orbital_data" : {
      "orbit_id" : "48",
      "orbit_determination_date" : "2017-09-19 06:50:22",
      "orbit_uncertainty" : "0",
      "minimum_orbit_intersection" : ".530235",
      "jupiter_tisserand_invariant" : "2.569",
      "epoch_osculation" : "2458000.5",
      "eccentricity" : ".8868673561107936",
      "semi_major_axis" : "2.52497166246926",
      "inclination" : "37.783555240814",
      "ascending_node_longitude" : "166.2929556458733",
      "orbital_period" : "1465.491114274745",
      "perihelion_distance" : ".2856567199204723",
      "perihelion_argument" : "358.1865641646623",
      "aphelion_distance" : "4.764286605018048",
      "perihelion_time" : "2458221.514821451110",
      "mean_anomaly" : "305.7073912305668",
      "mean_motion" : ".245651438274438",
      "equinox" : "J2000"
    }
  } ]
}